STARLINK-36342          
1 67649U 26022B   26055.70234928  .00285682  00000+0  18509-2 0  9992
2 67649  97.2848  89.0272 0001195  50.9732 309.1640 15.75213872  3504
STARLINK-36703          
1 67650U 26022C   26055.70128810  .00104594  00000+0  69188-3 0  9998
2 67650  97.2847  89.0288 0001359  57.2184 302.9212 15.75245920  3500
STARLINK-36696          
1 67651U 26022D   26055.82657923  .00159073  00000+0  10454-2 0  9997
2 67651  97.2852  89.1641 0001369  49.0195 311.1188 15.75238468  3528
STARLINK-36699          
1 67652U 26022E   26055.82587215  .00197043  00000+0  12897-2 0  9996
2 67652  97.2856  89.1655 0000783  85.8898 274.2457 15.75225725  3525
STARLINK-36694          
1 67653U 26022F   26055.82375417  .00229996  00000+0  14995-2 0  9990
2 67653  97.2848  89.1680 0001118  72.1823 287.9564 15.75224620  3528
STARLINK-36620          
1 67654U 26022G   26055.31518145  .00248737  00000+0  16148-2 0  9998
2 67654  97.2843  88.6349 0001121 106.4968 253.6420 15.75269986  3441
STARLINK-36720          
1 67655U 26022H   26055.82163469  .00213411  00000+0  13915-2 0  9990
2 67655  97.2846  89.1706 0001142 108.2125 251.9264 15.75269004  3523
STARLINK-36688          
1 67656U 26022J   26055.75740153  .00233444  00000+0  15187-2 0  9995
2 67656  97.2843  89.1041 0001246 100.0054 260.1352 15.75264970  3515
STARLINK-36706          
1 67657U 26022K   26055.81951824  .00285267  00000+0  18477-2 0  9997
2 67657  97.2853  89.1725 0000714  85.6110 274.5237 15.75221698  3528
STARLINK-36701          
1 67658U 26022L   26055.75493544  .00348332  00000+0  22285-2 0  9996
2 67658  97.2842  89.1077 0001439  74.7069 285.4355 15.75332352  3515
STARLINK-36642          
1 67659U 26022M   26055.69035099  .00244012  00000+0  15849-2 0  9995
2 67659  97.2843  89.0431 0001283  59.1702 300.9690 15.75271321  3500
STARLINK-36673          
1 67660U 26022N   26055.87952049  .00174514  00000+0  11447-2 0  9999
2 67660  97.2840  89.2435 0001583  93.6829 266.4617 15.75239214  3534
