CCSDS_OMM_VERS = 2.0
CREATION_DATE  = 
ORIGINATOR     = 

OBJECT_NAME    = STARLINK-36342
OBJECT_ID      = 2026-022B
CENTER_NAME    = EARTH
REF_FRAME      = TEME
TIME_SYSTEM    = UTC
MEAN_ELEMENT_THEORY = SGP/SGP4

EPOCH          = 2026-02-24T16:51:22.977792
MEAN_MOTION    = 15.75213872
ECCENTRICITY   = .00011954
INCLINATION    = 97.2848
RA_OF_ASC_NODE = 89.0272
ARG_OF_PERICENTER = 50.9732
MEAN_ANOMALY   = 309.1640

EPHEMERIS_TYPE = 0
CLASSIFICATION_TYPE = U
NORAD_CAT_ID   = 67649
ELEMENT_SET_NO = 999
REV_AT_EPOCH   = 350
BSTAR          = .18509156E-2
MEAN_MOTION_DOT = .285682E-2
MEAN_MOTION_DDOT = 0

CCSDS_OMM_VERS = 2.0
CREATION_DATE  = 
ORIGINATOR     = 

OBJECT_NAME    = STARLINK-36703
OBJECT_ID      = 2026-022C
CENTER_NAME    = EARTH
REF_FRAME      = TEME
TIME_SYSTEM    = UTC
MEAN_ELEMENT_THEORY = SGP/SGP4

EPOCH          = 2026-02-24T16:49:51.291840
MEAN_MOTION    = 15.75245920
ECCENTRICITY   = .00013593
INCLINATION    = 97.2847
RA_OF_ASC_NODE = 89.0288
ARG_OF_PERICENTER = 57.2184
MEAN_ANOMALY   = 302.9212

EPHEMERIS_TYPE = 0
CLASSIFICATION_TYPE = U
NORAD_CAT_ID   = 67650
ELEMENT_SET_NO = 999
REV_AT_EPOCH   = 350
BSTAR          = .691882E-3
MEAN_MOTION_DOT = .104594E-2
MEAN_MOTION_DDOT = 0

CCSDS_OMM_VERS = 2.0
CREATION_DATE  = 
ORIGINATOR     = 

OBJECT_NAME    = STARLINK-36696
OBJECT_ID      = 2026-022D
CENTER_NAME    = EARTH
REF_FRAME      = TEME
TIME_SYSTEM    = UTC
MEAN_ELEMENT_THEORY = SGP/SGP4

EPOCH          = 2026-02-24T19:50:16.445472
MEAN_MOTION    = 15.75238468
ECCENTRICITY   = .00013696
INCLINATION    = 97.2852
RA_OF_ASC_NODE = 89.1641
ARG_OF_PERICENTER = 49.0195
MEAN_ANOMALY   = 311.1188

EPHEMERIS_TYPE = 0
CLASSIFICATION_TYPE = U
NORAD_CAT_ID   = 67651
ELEMENT_SET_NO = 999
REV_AT_EPOCH   = 352
BSTAR          = .10454225E-2
MEAN_MOTION_DOT = .159073E-2
MEAN_MOTION_DDOT = 0

CCSDS_OMM_VERS = 2.0
CREATION_DATE  = 
ORIGINATOR     = 

OBJECT_NAME    = STARLINK-36699
OBJECT_ID      = 2026-022E
CENTER_NAME    = EARTH
REF_FRAME      = TEME
TIME_SYSTEM    = UTC
MEAN_ELEMENT_THEORY = SGP/SGP4

EPOCH          = 2026-02-24T19:49:15.353760
MEAN_MOTION    = 15.75225725
ECCENTRICITY   = .00007837
INCLINATION    = 97.2856
RA_OF_ASC_NODE = 89.1655
ARG_OF_PERICENTER = 85.8898
MEAN_ANOMALY   = 274.2457

EPHEMERIS_TYPE = 0
CLASSIFICATION_TYPE = U
NORAD_CAT_ID   = 67652
ELEMENT_SET_NO = 999
REV_AT_EPOCH   = 352
BSTAR          = .12896868E-2
MEAN_MOTION_DOT = .197043E-2
MEAN_MOTION_DDOT = 0

CCSDS_OMM_VERS = 2.0
CREATION_DATE  = 
ORIGINATOR     = 

OBJECT_NAME    = STARLINK-36694
OBJECT_ID      = 2026-022F
CENTER_NAME    = EARTH
REF_FRAME      = TEME
TIME_SYSTEM    = UTC
MEAN_ELEMENT_THEORY = SGP/SGP4

EPOCH          = 2026-02-24T19:46:12.360288
MEAN_MOTION    = 15.75224620
ECCENTRICITY   = .00011189
INCLINATION    = 97.2848
RA_OF_ASC_NODE = 89.1680
ARG_OF_PERICENTER = 72.1823
MEAN_ANOMALY   = 287.9564

EPHEMERIS_TYPE = 0
CLASSIFICATION_TYPE = U
NORAD_CAT_ID   = 67653
ELEMENT_SET_NO = 999
REV_AT_EPOCH   = 352
BSTAR          = .14994519E-2
MEAN_MOTION_DOT = .229996E-2
MEAN_MOTION_DDOT = 0

CCSDS_OMM_VERS = 2.0
CREATION_DATE  = 
ORIGINATOR     = 

OBJECT_NAME    = STARLINK-36620
OBJECT_ID      = 2026-022G
CENTER_NAME    = EARTH
REF_FRAME      = TEME
TIME_SYSTEM    = UTC
MEAN_ELEMENT_THEORY = SGP/SGP4

EPOCH          = 2026-02-24T07:33:51.677280
MEAN_MOTION    = 15.75269986
ECCENTRICITY   = .0001121
INCLINATION    = 97.2843
RA_OF_ASC_NODE = 88.6349
ARG_OF_PERICENTER = 106.4968
MEAN_ANOMALY   = 253.6420

EPHEMERIS_TYPE = 0
CLASSIFICATION_TYPE = U
NORAD_CAT_ID   = 67654
ELEMENT_SET_NO = 999
REV_AT_EPOCH   = 344
BSTAR          = .16148E-2
MEAN_MOTION_DOT = .248737E-2
MEAN_MOTION_DDOT = 0

CCSDS_OMM_VERS = 2.0
CREATION_DATE  = 
ORIGINATOR     = 

OBJECT_NAME    = STARLINK-36720
OBJECT_ID      = 2026-022H
CENTER_NAME    = EARTH
REF_FRAME      = TEME
TIME_SYSTEM    = UTC
MEAN_ELEMENT_THEORY = SGP/SGP4

EPOCH          = 2026-02-24T19:43:09.237216
MEAN_MOTION    = 15.75269004
ECCENTRICITY   = .00011421
INCLINATION    = 97.2846
RA_OF_ASC_NODE = 89.1706
ARG_OF_PERICENTER = 108.2125
MEAN_ANOMALY   = 251.9264

EPHEMERIS_TYPE = 0
CLASSIFICATION_TYPE = U
NORAD_CAT_ID   = 67655
ELEMENT_SET_NO = 999
REV_AT_EPOCH   = 352
BSTAR          = .13914522E-2
MEAN_MOTION_DOT = .213411E-2
MEAN_MOTION_DDOT = 0

CCSDS_OMM_VERS = 2.0
CREATION_DATE  = 
ORIGINATOR     = 

OBJECT_NAME    = STARLINK-36688
OBJECT_ID      = 2026-022J
CENTER_NAME    = EARTH
REF_FRAME      = TEME
TIME_SYSTEM    = UTC
MEAN_ELEMENT_THEORY = SGP/SGP4

EPOCH          = 2026-02-24T18:10:39.492192
MEAN_MOTION    = 15.75264970
ECCENTRICITY   = .00012465
INCLINATION    = 97.2843
RA_OF_ASC_NODE = 89.1041
ARG_OF_PERICENTER = 100.0054
MEAN_ANOMALY   = 260.1352

EPHEMERIS_TYPE = 0
CLASSIFICATION_TYPE = U
NORAD_CAT_ID   = 67656
ELEMENT_SET_NO = 999
REV_AT_EPOCH   = 351
BSTAR          = .15186508E-2
MEAN_MOTION_DOT = .233444E-2
MEAN_MOTION_DDOT = 0

CCSDS_OMM_VERS = 2.0
CREATION_DATE  = 
ORIGINATOR     = 

OBJECT_NAME    = STARLINK-36706
OBJECT_ID      = 2026-022K
CENTER_NAME    = EARTH
REF_FRAME      = TEME
TIME_SYSTEM    = UTC
MEAN_ELEMENT_THEORY = SGP/SGP4

EPOCH          = 2026-02-24T19:40:06.375936
MEAN_MOTION    = 15.75221698
ECCENTRICITY   = .00007141
INCLINATION    = 97.2853
RA_OF_ASC_NODE = 89.1725
ARG_OF_PERICENTER = 85.6110
MEAN_ANOMALY   = 274.5237

EPHEMERIS_TYPE = 0
CLASSIFICATION_TYPE = U
NORAD_CAT_ID   = 67657
ELEMENT_SET_NO = 999
REV_AT_EPOCH   = 352
BSTAR          = .18476601E-2
MEAN_MOTION_DOT = .285267E-2
MEAN_MOTION_DDOT = 0

CCSDS_OMM_VERS = 2.0
CREATION_DATE  = 
ORIGINATOR     = 

OBJECT_NAME    = STARLINK-36701
OBJECT_ID      = 2026-022L
CENTER_NAME    = EARTH
REF_FRAME      = TEME
TIME_SYSTEM    = UTC
MEAN_ELEMENT_THEORY = SGP/SGP4

EPOCH          = 2026-02-24T18:07:06.422016
MEAN_MOTION    = 15.75332352
ECCENTRICITY   = .00014391
INCLINATION    = 97.2842
RA_OF_ASC_NODE = 89.1077
ARG_OF_PERICENTER = 74.7069
MEAN_ANOMALY   = 285.4355

EPHEMERIS_TYPE = 0
CLASSIFICATION_TYPE = U
NORAD_CAT_ID   = 67658
ELEMENT_SET_NO = 999
REV_AT_EPOCH   = 351
BSTAR          = .22285226E-2
MEAN_MOTION_DOT = .348332E-2
MEAN_MOTION_DDOT = 0

CCSDS_OMM_VERS = 2.0
CREATION_DATE  = 
ORIGINATOR     = 

OBJECT_NAME    = STARLINK-36642
OBJECT_ID      = 2026-022M
CENTER_NAME    = EARTH
REF_FRAME      = TEME
TIME_SYSTEM    = UTC
MEAN_ELEMENT_THEORY = SGP/SGP4

EPOCH          = 2026-02-24T16:34:06.325536
MEAN_MOTION    = 15.75271321
ECCENTRICITY   = .00012836
INCLINATION    = 97.2843
RA_OF_ASC_NODE = 89.0431
ARG_OF_PERICENTER = 59.1702
MEAN_ANOMALY   = 300.9690

EPHEMERIS_TYPE = 0
CLASSIFICATION_TYPE = U
NORAD_CAT_ID   = 67659
ELEMENT_SET_NO = 999
REV_AT_EPOCH   = 350
BSTAR          = .158495E-2
MEAN_MOTION_DOT = .244012E-2
MEAN_MOTION_DDOT = 0

CCSDS_OMM_VERS = 2.0
CREATION_DATE  = 
ORIGINATOR     = 

OBJECT_NAME    = STARLINK-36673
OBJECT_ID      = 2026-022N
CENTER_NAME    = EARTH
REF_FRAME      = TEME
TIME_SYSTEM    = UTC
MEAN_ELEMENT_THEORY = SGP/SGP4

EPOCH          = 2026-02-24T21:06:30.570336
MEAN_MOTION    = 15.75239214
ECCENTRICITY   = .00015838
INCLINATION    = 97.2840
RA_OF_ASC_NODE = 89.2435
ARG_OF_PERICENTER = 93.6829
MEAN_ANOMALY   = 266.4617

EPHEMERIS_TYPE = 0
CLASSIFICATION_TYPE = U
NORAD_CAT_ID   = 67660
ELEMENT_SET_NO = 999
REV_AT_EPOCH   = 353
BSTAR          = .1144689E-2
MEAN_MOTION_DOT = .174514E-2
MEAN_MOTION_DDOT = 0

